[
    {
        "ID": "0123",
        "SOCIETY_NAME": "GREAT LODGH SOCIETY",
        "SECTOR_AREA": "SECTOR 65",
        "CITY": "HYEDERABAD",
        "STATE": "ANDHRA PRADESH",
        "PIN_CODE": "5201",
        "NO_OF_TOWERS": 49
    },
    {
        "ID": "0123",
        "SOCIETY_NAME": "GREAT LODGH SOCIETY",
        "SECTOR_AREA": "SECTOR 65",
        "CITY": "HYEDERABAD",
        "STATE": "ANDHRA PRADESH",
        "PIN_CODE": "5201",
        "NO_OF_TOWERS": 49
    },
    {
        "ID": "0123",
        "SOCIETY_NAME": "GREAT LODGH SOCIETY",
        "SECTOR_AREA": "SECTOR 65",
        "CITY": "HYEDERABAD",
        "STATE": "ANDHRA PRADESH",
        "PIN_CODE": "5201",
        "NO_OF_TOWERS": 49
    },
    {
        "ID": "0123",
        "SOCIETY_NAME": "GREAT LODGH SOCIETY",
        "SECTOR_AREA": "SECTOR 65",
        "CITY": "HYEDERABAD",
        "STATE": "ANDHRA PRADESH",
        "PIN_CODE": "5201",
        "NO_OF_TOWERS": 49
    },
    {
        "ID": "0123",
        "SOCIETY_NAME": "GREAT LODGH SOCIETY",
        "SECTOR_AREA": "SECTOR 65",
        "CITY": "HYEDERABAD",
        "STATE": "ANDHRA PRADESH",
        "PIN_CODE": "5201",
        "NO_OF_TOWERS": 49
    },
    {
        "ID": "0123",
        "SOCIETY_NAME": "GREAT LODGH SOCIETY",
        "SECTOR_AREA": "SECTOR 65",
        "CITY": "HYEDERABAD",
        "STATE": "ANDHRA PRADESH",
        "PIN_CODE": "5201",
        "NO_OF_TOWERS": 49
    },
    {
        "ID": "0123",
        "SOCIETY_NAME": "GREAT LODGH SOCIETY",
        "SECTOR_AREA": "SECTOR 65",
        "CITY": "HYEDERABAD",
        "STATE": "ANDHRA PRADESH",
        "PIN_CODE": "5201",
        "NO_OF_TOWERS": 49
    },
    {
        "ID": "0123",
        "SOCIETY_NAME": "GREAT LODGH SOCIETY",
        "SECTOR_AREA": "SECTOR 65",
        "CITY": "HYEDERABAD",
        "STATE": "ANDHRA PRADESH",
        "PIN_CODE": "5201",
        "NO_OF_TOWERS": 49
    },
    {
        "ID": "0123",
        "SOCIETY_NAME": "GREAT LODGH SOCIETY",
        "SECTOR_AREA": "SECTOR 65",
        "CITY": "HYEDERABAD",
        "STATE": "ANDHRA PRADESH",
        "PIN_CODE": "5201",
        "NO_OF_TOWERS": 49
    },
    {
        "ID": "0123",
        "SOCIETY_NAME": "GREAT LODGH SOCIETY",
        "SECTOR_AREA": "SECTOR 65",
        "CITY": "HYEDERABAD",
        "STATE": "ANDHRA PRADESH",
        "PIN_CODE": "5201",
        "NO_OF_TOWERS": 49
    },
    {
        "ID": "0123",
        "SOCIETY_NAME": "GREAT LODGH SOCIETY",
        "SECTOR_AREA": "SECTOR 65",
        "CITY": "HYEDERABAD",
        "STATE": "ANDHRA PRADESH",
        "PIN_CODE": "5201",
        "NO_OF_TOWERS": 49
    },
    {
        "ID": "0123",
        "SOCIETY_NAME": "GREAT LODGH SOCIETY",
        "SECTOR_AREA": "SECTOR 65",
        "CITY": "HYEDERABAD",
        "STATE": "ANDHRA PRADESH",
        "PIN_CODE": "5201",
        "NO_OF_TOWERS": 49
    },
    {
        "ID": "0123",
        "SOCIETY_NAME": "GREAT LODGH SOCIETY",
        "SECTOR_AREA": "SECTOR 65",
        "CITY": "HYEDERABAD",
        "STATE": "ANDHRA PRADESH",
        "PIN_CODE": "5201",
        "NO_OF_TOWERS": 49
    },
    {
        "ID": "0123",
        "SOCIETY_NAME": "GREAT LODGH SOCIETY",
        "SECTOR_AREA": "SECTOR 65",
        "CITY": "HYEDERABAD",
        "STATE": "ANDHRA PRADESH",
        "PIN_CODE": "5201",
        "NO_OF_TOWERS": 49
    },
    {
        "ID": "0123",
        "SOCIETY_NAME": "GREAT LODGH SOCIETY",
        "SECTOR_AREA": "SECTOR 65",
        "CITY": "HYEDERABAD",
        "STATE": "ANDHRA PRADESH",
        "PIN_CODE": "5201",
        "NO_OF_TOWERS": 49
    },
    {
        "ID": "0123",
        "SOCIETY_NAME": "GREAT LODGH SOCIETY",
        "SECTOR_AREA": "SECTOR 65",
        "CITY": "HYEDERABAD",
        "STATE": "ANDHRA PRADESH",
        "PIN_CODE": "5201",
        "NO_OF_TOWERS": 49
    },
    {
        "ID": "0123",
        "SOCIETY_NAME": "GREAT LODGH SOCIETY",
        "SECTOR_AREA": "SECTOR 65",
        "CITY": "HYEDERABAD",
        "STATE": "ANDHRA PRADESH",
        "PIN_CODE": "5201",
        "NO_OF_TOWERS": 49
    }
]